[
    {
        "Altitude(m)": 605459.0671819126,
        "Argument of Periapsis(deg)": 0.0,
        "Eccentricity": 0.0,
        "Inclination(deg)": 60.0,
        "Latitude(deg)": 27.988338631505943,
        "Longitude(deg)": 97.79858358259862,
        "Mean Anomaly(deg)": 32.72730000000001,
        "RAAN(deg)": 180.0,
        "Satellite Name": "Test1 794",
        "Satellite Number": 794,
        "Semi-Major Axis(m)": 6980739.136638005,
        "Time(s)": 0
    },
    {
        "Altitude(m)": 605535.8586636801,
        "Argument of Periapsis(deg)": 0.00010418945913296404,
        "Eccentricity": 0.0,
        "Inclination(deg)": 60.0,
        "Latitude(deg)": 28.501468140850214,
        "Longitude(deg)": 98.15552905182143,
        "Mean Anomaly(deg)": 33.34740614546182,
        "RAAN(deg)": 179.99957995086024,
        "Satellite Name": "Test1 794",
        "Satellite Number": 794,
        "Semi-Major Axis(m)": 6980739.136638005,
        "Time(s)": 10
    }
]